{"type": "FeatureCollection", "features": [{"type": "Feature", "properties": {"name": "Dome of the Rock", "source": "OpenStreetMap, ODbL"}, "geometry": {"type": "LineString", "coordinates": [[35.2353611, 31.778246199999987], [35.2351492, 31.778221400000014], [35.2350227, 31.77807339999999], [35.2350564, 31.777892300000012], [35.2352301, 31.777784800000006], [35.2354423, 31.777813200000008], [35.2355688, 31.777960900000014], [35.2355357, 31.778154200000007], [35.2353611, 31.778246199999987]]}}, {"type": "Feature", "properties": {"name": "city_wall", "source": "OpenStreetMap, ODbL"}, "geometry": {"type": "LineString", "coordinates": [[35.2370561, 31.7802965], [35.2369677, 31.78028870000001], [35.2369405, 31.7802869], [35.2369148, 31.780284400000003], [35.2361858, 31.780219599999995], [35.235831, 31.7801852], [35.2356591, 31.780172099999998], [35.2356333, 31.780170500000008], [35.2356122, 31.780169199999985], [35.2351899, 31.780127900000007], [35.2351411, 31.78012300000001], [35.2351099, 31.780119900000003], [35.234809, 31.780092000000014], [35.2346738, 31.7800798], [35.2345347, 31.780068900000003], [35.2338687, 31.780011500000015], [35.2337734, 31.780003600000008], [35.2337698, 31.780036299999992], [35.2336977, 31.78003060000001], [35.2337015, 31.779996500000006], [35.233705, 31.77996450000001], [35.233725, 31.779948100000002], [35.2337595, 31.779783500000004], [35.2338355, 31.77947900000001], [35.2339092, 31.779150399999995], [35.2339234, 31.77909760000001], [35.2340191, 31.7786518], [35.2340259, 31.77862029999999], [35.234035, 31.7785784], [35.2340504, 31.778506799999988], [35.2340737, 31.77840009999999], [35.2340796, 31.778376199999993], [35.2341479, 31.778056100000004], [35.2341631, 31.777984600000014], [35.2341779, 31.777915200000002], [35.234197900000005, 31.777821700000004], [35.2342826, 31.777351299999985], [35.2342969, 31.777271800000015], [35.2343059, 31.777221599999997]]}}, {"type": "Feature", "properties": {"name": "Hurva Synagogue", "source": "OpenStreetMap, ODbL"}, "geometry": {"type": "LineString", "coordinates": [[35.2311499, 31.775240999999994], [35.2315235, 31.7752252], [35.2315309, 31.775425499999997], [35.2311718, 31.775430399999994], [35.2311499, 31.775240999999994]]}}, {"type": "Feature", "properties": {"name": "citywalls", "source": "OpenStreetMap, ODbL"}, "geometry": {"type": "LineString", "coordinates": [[35.2370561, 31.7802965], [35.2369971, 31.780712299999994], [35.2369884, 31.780795099999995], [35.2369775, 31.780848599999988], [35.2369656, 31.780907000000006], [35.2369554, 31.780973899999992], [35.2369176, 31.78138139999999], [35.2369986, 31.781390899999987], [35.2369819, 31.781532799999994], [35.236931, 31.781529199999994], [35.2369145, 31.78170339999999], [35.2369639, 31.781708500000008], [35.236927900000005, 31.78196979999999], [35.2369651, 31.78196979999999], [35.2369564, 31.782096699999986], [35.2369268, 31.78209560000001], [35.236907, 31.782264299999998], [35.2369533, 31.782267500000003], [35.2369443, 31.78236200000001], [35.2368953, 31.782358600000006], [35.236807, 31.782862299999994], [35.2368471, 31.78286149999999], [35.2368386, 31.782930099999987], [35.2367948, 31.78292519999999], [35.2367757, 31.783169399999984], [35.2366858, 31.783641199999998], [35.2367759, 31.783650799999997], [35.2367594, 31.7837524], [35.2366535, 31.7837395], [35.2366588, 31.783692599999988], [35.23631830000001, 31.783628900000007], [35.2363057, 31.783670700000002], [35.2362251, 31.783656899999993], [35.2362272, 31.783620300000017], [35.2359128, 31.783553400000002], [35.235908, 31.78357920000001], [35.2358391, 31.7835654], [35.2358478, 31.78353969999999], [35.2354452, 31.783447900000006], [35.2354428, 31.783456400000002], [35.2351367, 31.783383299999993], [35.2351247, 31.783419899999995], [35.2350167, 31.783393500000003], [35.2350304, 31.7833534], [35.2349332, 31.7833274], [35.2349719, 31.783237000000007], [35.2346941, 31.783202299999992], [35.2346866, 31.78323470000001], [35.2345206, 31.783195900000003], [35.2345213, 31.783149999999996], [35.2337385, 31.7829793], [35.2337249, 31.783022], [35.2336106, 31.782995800000002], [35.233626, 31.782947100000005], [35.2330611, 31.782816199999992], [35.2330454, 31.7828621], [35.2329237, 31.782846600000003], [35.2329257, 31.782762999999992], [35.232487, 31.7826833], [35.2324716, 31.78253449999999], [35.2321768, 31.782488800000007], [35.2318641, 31.782507800000005], [35.23179160000001, 31.782580399999997], [35.2316369, 31.78255490000001], [35.2315889, 31.78258460000001], [35.2312996, 31.7824915], [35.2312514, 31.782425399999994], [35.2310503, 31.7823102], [35.2310866, 31.782270399999994], [35.2309516, 31.7821812], [35.2309209, 31.7822145], [35.2308459, 31.782164999999992], [35.23090390000001, 31.7820972], [35.2307448, 31.781977100000013], [35.2307708, 31.781939500000004], [35.2305582, 31.781783599999997], [35.2305331, 31.781807799999985], [35.2304963, 31.78184299999999], [35.2303911, 31.7817634], [35.2304321, 31.7817243], [35.2303931, 31.7816946], [35.2303496, 31.781661899999992]]}}, {"type": "Feature", "properties": {"name": "citywalls", "source": "OpenStreetMap, ODbL"}, "geometry": {"type": "LineString", "coordinates": [[35.2357969, 31.775843300000002], [35.2349954, 31.775722300000005], [35.2346228, 31.775668299999996], [35.2345776, 31.775920100000004], [35.2344908, 31.776329700000005], [35.2344789, 31.77638640000001], [35.2344719, 31.776420299999995], [35.2344244, 31.7766141], [35.2343641, 31.77694599999999], [35.2343073, 31.777192299999992], [35.2343059, 31.777221599999997]]}}, {"type": "Feature", "properties": {"name": "Tiferet Yisrael Synagogue", "source": "OpenStreetMap, ODbL"}, "geometry": {"type": "LineString", "coordinates": [[35.2322327, 31.775465400000005], [35.2323875, 31.775478899999996], [35.2324097, 31.77529569999999], [35.2322549, 31.775282100000002], [35.2322327, 31.775465400000005]]}}, {"type": "Feature", "properties": {"name": "Dome of the Rock", "source": "OpenStreetMap, ODbL"}, "geometry": {"type": "LineString", "coordinates": [[35.2354094, 31.777978499999993], [35.2354164, 31.778021399999986], [35.2354046, 31.778063100000004], [35.2353748, 31.7780977], [35.2353318, 31.778120000000005], [35.235282, 31.778126600000014], [35.235233, 31.778116500000003], [35.23519230000001, 31.778091200000013], [35.2351661, 31.77805460000001], [35.2351583, 31.778012300000004], [35.2351621, 31.77799890000001], [35.2351641, 31.777992100000006], [35.2351669, 31.777982099999992], [35.2351689, 31.777975100000013], [35.2351692, 31.77797410000001], [35.2351702, 31.777970700000008], [35.2351768, 31.777962999999993], [35.2351841, 31.7779545], [35.2351931, 31.777943999999994], [35.2351999, 31.777936099999987], [35.235243, 31.777913800000007], [35.2352928, 31.777907199999998], [35.2353417, 31.777917299999984], [35.2353825, 31.777941300000002], [35.2354094, 31.777978499999993]]}}, {"type": "Feature", "properties": {"name": "citywalls", "source": "OpenStreetMap, ODbL"}, "geometry": {"type": "LineString", "coordinates": [[35.2340504, 31.778506799999988], [35.234035, 31.7785784], [35.2340259, 31.77862029999999], [35.2340191, 31.7786518]]}}, {"type": "Feature", "properties": {"name": "citywalls", "source": "OpenStreetMap, ODbL"}, "geometry": {"type": "LineString", "coordinates": [[35.2375555, 31.77608179999999], [35.2372982, 31.7781805], [35.2372916, 31.77822709999999], [35.2372085, 31.778891800000007], [35.2372346, 31.77889400000001], [35.2372175, 31.77904320000001], [35.2371913, 31.779041000000007], [35.2371895, 31.779052199999995], [35.2371539, 31.7793433], [35.2371399, 31.77946089999999], [35.2370619, 31.7800703], [35.2370879, 31.780072500000003], [35.2370849, 31.78009350000001], [35.2370561, 31.7802965]]}}, {"type": "Feature", "properties": {"name": "citywalls", "source": "OpenStreetMap, ODbL"}, "geometry": {"type": "LineString", "coordinates": [[35.2307072, 31.772926800000008], [35.230773, 31.7729355], [35.2307724, 31.77296559999999], [35.2310106, 31.773026000000016], [35.2310025, 31.7730599], [35.231499, 31.77315370000002], [35.231483, 31.773233500000007], [35.2322931, 31.77340359999999], [35.2323399, 31.773361999999995], [35.2324272, 31.773436499999995], [35.2323801, 31.77347929999999], [35.2324199, 31.773833], [35.2324593, 31.773912499999994], [35.2325169, 31.77391279999999], [35.2325351, 31.774013099999998], [35.2332405, 31.77428229999999], [35.2332415, 31.774282700000004], [35.2335574, 31.774746900000004], [35.2336842, 31.774757899999994], [35.2337036, 31.774761100000003], [35.2338476, 31.774781000000008], [35.2341146, 31.774818], [35.2341733, 31.774826100000006], [35.2341822, 31.774827699999996], [35.2355625, 31.775016700000005], [35.2357672, 31.775045499999997], [35.2357204, 31.77530989999999], [35.2356721, 31.77558229999999], [35.2357709, 31.775593500000003], [35.2357587, 31.77567209999999], [35.2358426, 31.775680600000012], [35.2357969, 31.775843300000002]]}}, {"type": "Feature", "properties": {"name": "citywalls", "source": "OpenStreetMap, ODbL"}, "geometry": {"type": "LineString", "coordinates": [[35.2275798, 31.776656999999997], [35.2275435, 31.776628200000005], [35.2275031, 31.776594900000006], [35.2275743, 31.77652840000001], [35.2276439, 31.7765858]]}}, {"type": "Feature", "properties": {"name": "citywalls", "source": "OpenStreetMap, ODbL"}, "geometry": {"type": "LineString", "coordinates": [[35.2303496, 31.781661899999992], [35.2303033, 31.78162680000001], [35.2302757, 31.7816059], [35.2302327, 31.781647000000007], [35.2301336, 31.781572000000015], [35.2301957, 31.781512699999993], [35.229897, 31.781289400000006], [35.2298083, 31.781363299999995], [35.2297017, 31.78127980000001], [35.2296726, 31.781302100000016], [35.2294998, 31.7811761], [35.2295682, 31.7811109], [35.2294652, 31.781022000000004], [35.229496, 31.780984399999998], [35.22856, 31.780282299999996], [35.2285169, 31.780301199999997], [35.2283974, 31.780217099999998], [35.2284245, 31.780180599999994], [35.2281238, 31.77996059999999], [35.2280953, 31.779989500000003], [35.2280483, 31.77995730000001], [35.2280775, 31.779919600000007], [35.2277498, 31.779661100000013], [35.22745780000001, 31.779963099999986], [35.2268804, 31.779602799999996], [35.2268305, 31.77964569999999], [35.2264135, 31.779405199999992], [35.2263123, 31.779368799999986], [35.226229, 31.7793242], [35.2261894, 31.77930469999999], [35.226105, 31.779255300000006], [35.2260681, 31.77923369999999], [35.2260083, 31.779308200000017], [35.2258571, 31.779219900000005], [35.2261406, 31.778914099999987], [35.2259285, 31.778662300000004], [35.2256897, 31.778413899999997], [35.2258404, 31.778307000000005], [35.225826, 31.77817780000001], [35.2259131, 31.778143700000005], [35.2258833, 31.7780656], [35.2274186, 31.776790400000003], [35.2275798, 31.776656999999997]]}}, {"type": "Feature", "properties": {"name": "citywalls", "source": "OpenStreetMap, ODbL"}, "geometry": {"type": "LineString", "coordinates": [[35.2275976, 31.776358300000002], [35.2275509, 31.775979799999995], [35.2274944, 31.775849200000003], [35.2274838, 31.775578599999992], [35.2278493, 31.775534499999996]]}}, {"type": "Feature", "properties": {"name": "citywalls", "source": "OpenStreetMap, ODbL"}, "geometry": {"type": "LineString", "coordinates": [[35.2277472, 31.776507699999996], [35.2276585, 31.776393700000003], [35.2278247, 31.7762886], [35.2277526, 31.775875300000003], [35.2276424, 31.775882599999996], [35.2276181, 31.775624200000003], [35.2277901, 31.775595200000016], [35.227857, 31.775540100000004], [35.2278493, 31.775534499999996], [35.2278102, 31.775418599999995], [35.227783, 31.7750146], [35.227767, 31.7748156], [35.2277637, 31.774718300000007], [35.2277589, 31.774535099999998], [35.2276641, 31.774534099999997], [35.2276603, 31.77440539999999], [35.2277245, 31.774415799999993], [35.2277134, 31.7739206], [35.2277861, 31.773907599999998], [35.2278167, 31.7734955], [35.2277391, 31.7734943], [35.2277418, 31.773358299999998], [35.2278065, 31.7733594], [35.2277997, 31.773087499999992], [35.22773990000001, 31.773087299999993], [35.227742500000005, 31.772910999999993], [35.2286205, 31.772902499999997], [35.2295025, 31.772897899999993], [35.2295919, 31.772871999999992], [35.2296377, 31.772856799999985], [35.2297415, 31.77282250000001], [35.2298437, 31.77283529999999], [35.2306436, 31.772943300000012], [35.230645700000004, 31.77291819999999], [35.2307072, 31.772926800000008]]}}, {"type": "Feature", "properties": {"name": "Western Wall", "source": "OpenStreetMap, ODbL"}, "geometry": {"type": "LineString", "coordinates": [[35.2343641, 31.77694599999999], [35.2344244, 31.7766141], [35.2344719, 31.776420299999995], [35.234537, 31.776429999999987], [35.2345602, 31.77643339999999], [35.2344696, 31.77687969999999], [35.2344647, 31.776905100000008], [35.2344477, 31.7769931], [35.2344698, 31.776996699999998], [35.2344658, 31.77701469999999], [35.2344469, 31.77701160000001], [35.2344424, 31.777031800000007], [35.2344608, 31.777034699999994], [35.2344569, 31.777052000000005], [35.2344382, 31.777048999999995], [35.2344343, 31.777066599999998], [35.2344547, 31.7770699], [35.2344507, 31.7770876], [35.2344334, 31.77708480000001], [35.2344205, 31.777143300000002], [35.2344293, 31.777144699999997], [35.2344238, 31.777169900000015], [35.2344104, 31.777167600000013], [35.2343962, 31.777236200000015], [35.2343059, 31.777221599999997], [35.2343073, 31.777192299999992], [35.2343641, 31.77694599999999]]}}, {"type": "Feature", "properties": {"name": "Southern Wall", "source": "OpenStreetMap, ODbL"}, "geometry": {"type": "LineString", "coordinates": [[35.2346256, 31.775654400000015], [35.2375555, 31.77608179999999]]}}, {"type": "Feature", "properties": {"name": "citywalls", "source": "OpenStreetMap, ODbL"}, "geometry": {"type": "LineString", "coordinates": [[35.2357969, 31.775843300000002], [35.2362398, 31.775910999999997], [35.2365296, 31.775953999999988], [35.2375337, 31.776079099999997], [35.2375555, 31.77608179999999]]}}, {"type": "Feature", "properties": {"name": "Tower of David", "source": "OpenStreetMap, ODbL"}, "geometry": {"type": "LineString", "coordinates": [[35.228378, 31.77598949999999], [35.228261, 31.77598980000001], [35.2282526, 31.775871500000008], [35.2282435, 31.775813899999996], [35.2282196, 31.77581429999999], [35.22821, 31.7757878], [35.2281568, 31.775762600000007], [35.2281446, 31.77571229999999], [35.2281223, 31.775714200000003], [35.2281016, 31.77568399999999], [35.2279345, 31.775714200000003], [35.2279211, 31.775662399999998], [35.227917, 31.775639799999997], [35.2278789, 31.775577399999992], [35.227857, 31.775540100000004], [35.2277901, 31.775595200000016], [35.2276181, 31.775624200000003], [35.2276424, 31.775882599999996], [35.2277526, 31.775875300000003], [35.2278247, 31.7762886], [35.2276585, 31.776393700000003], [35.2277472, 31.776507699999996], [35.2278655, 31.776452500000012], [35.228066, 31.7765277], [35.2282599, 31.77660039999999], [35.2283302, 31.7764555], [35.2283726, 31.776472000000002], [35.2283827, 31.776449400000004], [35.2284831, 31.776494500000002], [35.228538, 31.7763964], [35.2285443, 31.776335800000002], [35.2284061, 31.77629160000001], [35.2284017, 31.77629019999999], [35.2283937, 31.776088400000003], [35.228378, 31.77598949999999]]}}, {"type": "Feature", "properties": {"name": "Tower of David", "source": "OpenStreetMap, ODbL"}, "geometry": {"type": "LineString", "coordinates": [[35.2280776, 31.7764271], [35.2281704, 31.77643469999999], [35.2282158, 31.776341200000015], [35.2282563, 31.77627990000001], [35.2282616, 31.77627369999999], [35.228269, 31.776248900000013], [35.228262900000004, 31.776223100000006], [35.2282566, 31.776186600000003], [35.2281804, 31.775887000000004], [35.2280758, 31.775728699999995], [35.2278822, 31.775772200000002], [35.2277775, 31.7758032], [35.2277882, 31.775879700000008], [35.2278181, 31.775874299999998], [35.2278314, 31.775937499999987], [35.2277937, 31.775949600000008], [35.2278633, 31.776250500000003], [35.2279059, 31.77629029999999], [35.2280776, 31.7764271]]}}, {"type": "Feature", "properties": {"name": "Temple Mount", "source": "OpenStreetMap, ODbL"}, "geometry": {"type": "LineString", "coordinates": [[35.2357969, 31.775843300000002], [35.2349954, 31.775722300000005], [35.2346228, 31.775668299999996], [35.2345776, 31.775920100000004], [35.2344908, 31.776329700000005], [35.2344789, 31.77638640000001], [35.2344719, 31.776420299999995], [35.2344244, 31.7766141], [35.2343641, 31.77694599999999], [35.2343073, 31.777192299999992], [35.2343059, 31.777221599999997]]}}, {"type": "Feature", "properties": {"name": "Temple Mount", "source": "OpenStreetMap, ODbL"}, "geometry": {"type": "LineString", "coordinates": [[35.2357969, 31.775843300000002], [35.2362398, 31.775910999999997], [35.2365296, 31.775953999999988], [35.2375337, 31.776079099999997], [35.2375555, 31.77608179999999]]}}, {"type": "Feature", "properties": {"name": "Temple Mount", "source": "OpenStreetMap, ODbL"}, "geometry": {"type": "LineString", "coordinates": [[35.2375555, 31.77608179999999], [35.2372982, 31.7781805], [35.2372916, 31.77822709999999], [35.2372085, 31.778891800000007], [35.2372346, 31.77889400000001], [35.2372175, 31.77904320000001], [35.2371913, 31.779041000000007], [35.2371895, 31.779052199999995], [35.2371539, 31.7793433], [35.2371399, 31.77946089999999], [35.2370619, 31.7800703], [35.2370879, 31.780072500000003], [35.2370849, 31.78009350000001], [35.2370561, 31.7802965]]}}, {"type": "Feature", "properties": {"name": "Temple Mount", "source": "OpenStreetMap, ODbL"}, "geometry": {"type": "LineString", "coordinates": [[35.2364181, 31.777111200000004], [35.2368749, 31.777174399999996], [35.2369171, 31.77699730000001], [35.2371091, 31.777020700000016], [35.2371306, 31.77691100000001], [35.2369377, 31.776887500000004], [35.2369647, 31.776698499999995], [35.236713, 31.776668899999994], [35.2367098, 31.77664450000001], [35.2367108, 31.776624500000008], [35.236695, 31.776615599999996], [35.2366582, 31.776658199999996], [35.2365888, 31.776651199999993], [35.2365856, 31.7766071], [35.2365494, 31.7765869], [35.2365094, 31.7765988], [35.23649330000001, 31.776605999999997], [35.2364781, 31.77662], [35.2364551, 31.776636300000007], [35.2364346, 31.776656600000003], [35.2364319, 31.776770100000007], [35.2364635, 31.776775000000004], [35.2364181, 31.777111200000004]]}}, {"type": "Feature", "properties": {"name": "Temple Mount", "source": "OpenStreetMap, ODbL"}, "geometry": {"type": "LineString", "coordinates": [[35.2370561, 31.7802965], [35.2369677, 31.78028870000001], [35.2369405, 31.7802869], [35.2369148, 31.780284400000003], [35.2361858, 31.780219599999995], [35.235831, 31.7801852], [35.2356591, 31.780172099999998], [35.2356333, 31.780170500000008], [35.2356122, 31.780169199999985], [35.2351899, 31.780127900000007], [35.2351411, 31.78012300000001], [35.2351099, 31.780119900000003], [35.234809, 31.780092000000014], [35.2346738, 31.7800798], [35.2345347, 31.780068900000003], [35.2338687, 31.780011500000015], [35.2337734, 31.780003600000008], [35.2337698, 31.780036299999992], [35.2336977, 31.78003060000001], [35.2337015, 31.779996500000006], [35.233705, 31.77996450000001], [35.233725, 31.779948100000002], [35.2337595, 31.779783500000004], [35.2338355, 31.77947900000001], [35.2339092, 31.779150399999995], [35.2339234, 31.77909760000001], [35.2340191, 31.7786518], [35.2340259, 31.77862029999999], [35.234035, 31.7785784], [35.2340504, 31.778506799999988], [35.2340737, 31.77840009999999], [35.2340796, 31.778376199999993], [35.2341479, 31.778056100000004], [35.2341631, 31.777984600000014], [35.2341779, 31.777915200000002], [35.234197900000005, 31.777821700000004], [35.2342826, 31.777351299999985], [35.2342969, 31.777271800000015], [35.2343059, 31.777221599999997]]}}]}